SIRION PATHFINDER-2     
1 43759U 18099B   24134.13154081  .00006486  00000+0  49451-3 0  9991
2 43759  97.5291 191.2713 0013022  53.0470 307.1945 15.02298507297246
AISTECHSAT 2            
1 43768U 18099L   24134.14648680  .00007425  00000+0  56528-3 0  9992
2 43768  97.5400 189.1731 0007916  66.7261 293.4797 15.02348464296865
FOX-1CLIFF (AO-95)      
1 43770U 18099N   24134.14561114  .00010586  00000+0  74542-3 0  9999
2 43770  97.5476 192.7508 0015913 120.2971 239.9832 15.05109845297297
2018-099Q               
1 43772U 18099Q   24133.92597612  .00021032  00000+0  13350-2 0  9995
2 43772  97.5253 195.8950 0005675  44.6336 315.5349 15.08888403297409
RANGE-A                 
1 43773U 18099R   24134.13391041  .00006746  00000+0  51834-3 0  9993
2 43773  97.5060 188.5105 0017330  95.5063 264.8140 15.01932415297175
HIBER-2                 
1 43774U 18099S   24133.91445384  .00021184  00000+0  12895-2 0  9995
2 43774  97.5451 196.8568 0010749  77.2901 282.9529 15.10384665297440
MOVE-II                 
1 43780U 18099Y   24133.95591924  .00029898  00000+0  16343-2 0  9990
2 43780  97.5228 197.3050 0008557 105.2166 255.0013 15.14204780297598
VESTA-1                 
1 43781U 18099Z   24134.14343469  .00018791  00000+0  12090-2 0  9997
2 43781  97.5207 192.6326 0008292  99.7660 260.4505 15.08400124297401
SNUSAT-2                
1 43782U 18099AA  24133.67538264  .00011361  00000+0  81595-3 0  9997
2 43782  97.5160 191.6334 0016573  68.5104 291.7888 15.04341303297237
SNUGLITE                
1 43784U 18099AC  24133.91943263  .00014637  00000+0  10222-2 0  9992
2 43784  97.4958 191.2339 0005774  80.9190 279.2690 15.05427450297330
ITASAT                  
1 43786U 18099AE  24134.13184204  .00008089  00000+0  59192-3 0  9995
2 43786  97.5109 192.3938 0019128 111.0630 249.2643 15.03694614297309
KAZSCISAT-1             
1 43787U 18099AF  24134.15235580  .00020063  00000+0  11350-2 0  9991
2 43787  97.5083 194.8545 0007642  83.1171 277.0929 15.13068330297632
EAGLET-I                
1 43790U 18099AJ  24134.14672876  .00006223  00000+0  47255-3 0  9993
2 43790  97.5321 192.8834 0016865  90.7847 269.5310 15.02422205297016
ESEO                    
1 43792U 18099AL  24134.10673558  .00004924  00000+0  40541-3 0  9996
2 43792  97.5200 189.9208 0015355  90.7575 269.5408 14.99441587296945
CSIM-FD                 
1 43793U 18099AM  24133.94169240  .00032460  00000+0  17743-2 0  9999
2 43793  97.5301 198.9843 0013873  79.4565 280.8229 15.14135504297449
ORBWEAVER 1             
1 43795U 18099AP  24133.77822843  .00097382  00000+0  28129-2 0  9991
2 43795  97.5298 206.3316 0000682 251.8565 108.2604 15.35272886298163
THEA                    
1 43796U 18099AQ  24133.74300158  .00014818  00000+0  98872-3 0  9995
2 43796  97.5465 196.3997 0014755  82.4866 277.8037 15.07048901296362
ASTROCAST 0.1           
1 43798U 18099AS  24133.91007765  .00022543  00000+0  13589-2 0  9999
2 43798  97.5373 197.4993 0010838  58.4254 301.8032 15.10724791297559
JY1SAT (JO-97)          
1 43803U 18099AX  24133.91029417  .00016444  00000+0  11110-2 0  9995
2 43803  97.5219 193.3777 0011103  69.9838 290.2584 15.06598754297388
SUOMI-100               
1 43804U 18099AY  24133.87809112  .00014257  00000+0  98011-3 0  9995
2 43804  97.5293 193.1523 0017467  66.9225 293.3842 15.05909741297364
AL-FARABI 2             
1 43805U 18099AZ  24133.70420532  .00018563  00000+0  11455-2 0  9993
2 43805  97.5122 194.6266 0011727  61.8896 298.3517 15.09905186297487
CENTAURI-1              
1 43809U 18099BD  24133.65559878  .00010866  00000+0  80329-3 0  9992
2 43809  97.5283 192.0426 0019640  82.4874 277.8582 15.03216477296942
GLOBAL-2                
1 43812U 18099BG  24133.91976899  .00007086  00000+0  56821-3 0  9991
2 43812  97.4890 189.9760 0005496 210.5423 149.5481 15.00387830296800
BRIO                    
1 43813U 18099BH  24133.76077148  .00025580  00000+0  14144-2 0  9994
2 43813  97.5683 202.3160 0007554  65.2343 294.9673 15.13837361297328
SEAHAWK-1               
1 43820U 18099BQ  24133.89103676  .00012923  00000+0  92390-3 0  9999
2 43820  97.5068 191.2977 0014068  82.9745 277.3081 15.04511311296720
SAUDISAT 5A             
1 43831U 18102A   24134.18994050  .00008987  00000+0  47718-3 0  9992
2 43831  97.4091 200.6687 0010979 303.4645  56.5538 15.15495580299297
SAUDISAT 5B             
1 43833U 18102C   24134.17689108  .00008754  00000+0  45655-3 0  9998
2 43833  97.4137 202.4207 0011711 308.2359  51.7820 15.16133334299375
2018-102D               
1 43834U 18102D   24134.20738070  .00013915  00000+0  63245-3 0  9996
2 43834  97.4253 206.2644 0009841 298.7832  61.2414 15.20823128299571
2018-102E               
1 43835U 18102E   24134.17433215  .00034819  00000+0  11142-2 0  9990
2 43835  97.4295 211.9439 0008503 273.4679  86.5590 15.32294723299948
2018-102F               
1 43836U 18102F   24134.22049271  .00037468  00000+0  11698-2 0  9991
2 43836  97.4350 213.5592 0008431 272.4348  87.5929 15.33067372299970
2018-102G               
1 43837U 18102G   24134.17533729  .00041396  00000+0  11993-2 0  9995
2 43837  97.4379 215.0413 0008295 271.8317  88.1976 15.35414885300078
2018-102H               
1 43838U 18102H   24134.21645449  .00085075  00000+0  17390-2 0  9993
2 43838  97.3953 215.9495 0009876 261.5924  98.4206 15.45789328300260
2018-102J               
1 43839U 18102J   24134.19638962  .00034938  00000+0  10710-2 0  9994
2 43839  97.4547 218.0437 0009499 279.0862  80.9305 15.33656982300078
CHOMPTT                 
1 43855U 18104G   24134.10951713  .07815800 -14920-5  72575-3 0  9990
2 43855  84.9879 294.4476 0011122 263.9277  96.0761 16.38682570302102
CP11 (ISX)              
1 43856U 18104H   24133.90442174  .01484149  16271-2  14393-2 0  9996
2 43856  84.9877 298.1257 0008043 247.9416 112.1020 16.11987555301653
ISAT                    
1 43879U 18111D   24133.95868961  .00017762  00000+0  11076-2 0  9997
2 43879  97.6215  39.8480 0015243 116.1638 244.1160 15.09493524292087
UWE-4                   
1 43880U 18111E   24134.18898613  .00014926  00000+0  95180-3 0  9990
2 43880  97.6139  40.1816 0018943 124.1782 236.1245 15.08659490292159
D-STAR ONE (SPARROW)    
1 43881U 18111F   24133.74260632  .00017142  00000+0  10560-2 0  9997
2 43881  97.6304  41.4686 0011376 150.3983 209.7893 15.09990915294136
LEMUR-2-TINYKEV         
1 43883U 18111H   24133.74200455  .00040707  00000+0  18335-2 0  9997
2 43883  97.6151  46.3555 0011657  91.2662 268.9908 15.20881151294505
LEMUR-2-REMY-COLTON     
1 43884U 18111J   24133.75196643  .00030909  00000+0  15189-2 0  9999
2 43884  97.6307  46.9116 0004446  98.2846 261.8892 15.17979619292478
MICRODRAGON             
1 43935U 19003D   24133.95708231  .00079350  00000+0  10876-2 0  9992
2 43935  97.0791 150.0219 0010330 164.1680 195.9901 15.57048644296443
JILIN-1 09              
1 43943U 19005B   24134.22354312  .00011282  00000+0  56746-3 0  9998
2 43943  97.4862 228.4382 0018641  68.9207 291.4017 15.17246003293199
JILIN-1 10              
1 43946U 19005E   24134.18878610  .00011168  00000+0  55667-3 0  9992
2 43946  97.4865 228.4490 0030747  63.6157 296.8227 15.17296642293110
EGYPTSAT-A (MISRSAT-A)  
1 44047U 19008A   24134.17139070  .00003103  00000+0  49913-3 0  9994
2 44047  98.0085 198.9167 0001317  77.0490 283.0864 14.72258460280674
EMISAT                  
1 44078U 19018A   24134.13779939  .00001211  00000+0  36835-3 0  9996
2 44078  98.3396 194.1003 0018851  14.3127 345.8594 14.43694257269664
AIS & APRS & ARIS & R/B 
1 44104U 19018AC  24133.91073890  .00201652  00000+0  83696-3 0  9992
2 44104  97.3621 242.4855 0014346 118.7210 241.5504 15.85104529287267
JILIN-1 GAOFEN 3A       
1 44312U 19032C   24134.17827589  .00010571  00000+0  63724-3 0  9998
2 44312  44.9822 179.0969 0012068 278.1670  81.7837 15.10913899271363
XIAOXIANG 4             
1 44313U 19032D   24134.17085391  .00019795  00000+0  97760-3 0  9990
2 44313  44.9902 165.3504 0011207 296.3062  63.6665 15.17578223271551
WT 1A                   
1 44315U 19032F   24134.17674300  .00015173  00000+0  79729-3 0  9997
2 44315  44.9774 160.5291 0014040 301.9123  58.0389 15.15532067271576
WT 1B                   
1 44316U 19032G   24134.20853228  .00008854  00000+0  60106-3 0  9997
2 44316  44.9796 210.7328 0015788 248.1169 111.8027 15.06673601270950
PROX-1                  
1 44339U 19036A   24134.20127891  .00013385  00000+0  23497-2 0  9992
2 44339  23.9999  90.3702 0008543 329.6968  30.3031 14.65983675260192
NPSAT1                  
1 44340U 19036B   24134.23849220  .00007870  00000+0  15232-2 0  9994
2 44340  23.9996 112.9531 0009317 284.1138  75.8320 14.61127732259975
FORMOSAT 7-3            
1 44343U 19036E   24133.90848091  .00013294  00000+0  77625-3 0  9997
2 44343  24.0012  34.4766 0000931 192.6608 167.3872 15.09938493267554
FORMOSAT 7-1            
1 44349U 19036L   24133.90841991  .00013738  00000+0  80216-3 0  9998
2 44349  23.9981 210.4733 0002394 197.7473 162.2947 15.09962827269326
FORMOSAT 7-4            
1 44350U 19036M   24133.73208202  .00013310  00000+0  77663-3 0  9991
2 44350  23.9998 273.7824 0002488 172.5226 187.5315 15.09958803268710
FORMOSAT 7-2            
1 44351U 19036N   24134.21738834  .00013833  00000+0  80834-3 0  9999
2 44351  24.0000 324.7704 0002175 154.3836 205.6776 15.09941710268351
FORMOSAT 7-6            
1 44353U 19036Q   24133.42381865  .00014081  00000+0  82321-3 0  9990
2 44353  23.9983 151.0429 0000902 210.2347 149.8105 15.09941573266452
FORMOSAT 7-5            
1 44358U 19036V   24134.19408042  .00012088  00000+0  70380-3 0  9994
2 44358  24.0002  85.5086 0001299  23.1421 336.9141 15.09952305267135
METEOR-M2 2             
1 44387U 19038A   24134.22641014  .00000272  00000+0  13862-3 0  9994
2 44387  98.8247 103.3178 0002384  74.4871 285.6570 14.23882474252417
